[{"OBJECT_NAME":"COSMOS 2582","OBJECT_ID":"2025-026B","EPOCH":"2026-03-09T19:42:31.273920","MEAN_MOTION":14.94730838,"ECCENTRICITY":0.0010584,"INCLINATION":81.9985,"RA_OF_ASC_NODE":175.8563,"ARG_OF_PERICENTER":32.77,"MEAN_ANOMALY":327.4174,"EPHEMERIS_TYPE":0,"CLASSIFICATION_TYPE":"U","NORAD_CAT_ID":62903,"ELEMENT_SET_NO":999,"REV_AT_EPOCH":5936,"BSTAR":0.0001816,"MEAN_MOTION_DOT":1.996e-5,"MEAN_MOTION_DDOT":0},{"OBJECT_NAME":"STARLINK-34436","OBJECT_ID":"2025-126Q","EPOCH":"2026-03-09T22:40:27.274368","MEAN_MOTION":14.98334656,"ECCENTRICITY":0.00023739,"INCLINATION":70.0033,"RA_OF_ASC_NODE":33.6651,"ARG_OF_PERICENTER":262.9707,"MEAN_ANOMALY":97.1182,"EPHEMERIS_TYPE":0,"CLASSIFICATION_TYPE":"U","NORAD_CAT_ID":64358,"ELEMENT_SET_NO":999,"REV_AT_EPOCH":4072,"BSTAR":0.00030079177,"MEAN_MOTION_DOT":3.498e-5,"MEAN_MOTION_DDOT":0}]
